QIANFAN-49              
1 62250U 24232P   25322.47298612  .00000200  00000+0  29199-3 0  9995
2 62250  89.0046  43.6799 0012442 261.9547  98.0192 13.50977019 64561
QIANFAN-50              
1 62251U 24232Q   25322.42360417  .00000194  00000+0  28185-3 0  9990
2 62251  89.0052  43.6917 0014075 264.0384  95.9163 13.50977566 64581
QIANFAN-51              
1 62252U 24232R   25322.40714641  .00000198  00000+0  28792-3 0  9999
2 62252  89.0046  43.6887 0011508 267.7462  92.2371 13.50975312 64573
QIANFAN-52              
1 62253U 24232S   25322.43596749  .00000187  00000+0  27183-3 0  9991
2 62253  89.0042  43.5603 0013629 259.3601 100.6015 13.50976366 64662
QIANFAN-53              
1 62254U 24232T   25322.41537565  .00000198  00000+0  28868-3 0  9994
2 62254  89.0050  43.6651 0012492 260.3254  99.6486 13.50987560 64622
QIANFAN-54              
1 62255U 24232U   25322.45655566 -.00000014  00000+0 -39841-4 0  9994
2 62255  89.0041  43.3415 0000668  10.5619 349.5546 13.50971579 96138
QIANFAN-55              
1 62785U 25016A   25322.48283352  .00000090  00000+0  12006-3 0  9991
2 62785  88.9761 105.7122 0018608  61.9728 298.3303 13.50980445 43917
QIANFAN-56              
1 62786U 25016B   25322.42506289  .00000123  00000+0  17136-3 0  9999
2 62786  88.9734 105.5612 0017311  64.6200 295.6741 13.50981202 43957
